     2.11           N: GPS NAV DATA                         RINEX VERSION / TYPE
teqc  2019Feb25                         20221121 12:25:14UTCPGM / RUN BY / DATE
OSX ker:10.11.6|Core i5|gcc 4.3 -m64|OSX ker:10.10+|=+      COMMENT
    4.6566D-09  1.4901D-08 -5.9605D-08 -1.1921D-07          ION ALPHA
    7.9872D+04  8.1920D+04 -6.5536D+04 -4.5875D+05          ION BETA
    9.313225746155D-10-3.552713678801D-15   589824     1540 DELTA-UTC: A0,A1,T,W
                                                            END OF HEADER
 3 09  7 17  0  0  0.0 4.210402257740D-04 5.229594535194D-12 0.000000000000D+00
    5.000000000000D+01-1.540625000000D+01 5.820599594194D-09 1.724227625527D+00
   -8.847564458847D-07 1.207470661029D-02 6.932765245438D-06 5.153634763718D+03
    4.320000000000D+05-3.520399332047D-07-2.436990196138D+00-8.195638656616D-08
    9.264336013353D-01 2.318125000000D+02 9.139013921870D-01-8.576071513516D-09
   -6.214544575012D-11 1.000000000000D+00 1.540000000000D+03 0.000000000000D+00
    2.800000000000D+00 0.000000000000D+00-4.190951585770D-09 5.000000000000D+01
    4.248180000000D+05 4.000000000000D+00
19 09  7 17  0  0  0.0 1.879595220089D-05-1.364242052659D-12 0.000000000000D+00
    5.300000000000D+01-1.503125000000D+01 5.052353307938D-09 2.456856949885D+00
   -5.774199962616D-07 5.748418974690D-03 7.336959242821D-06 5.153623846054D+03
    4.320000000000D+05-2.421438694000D-08-2.248413716896D+00 1.974403858185D-07
    9.573749858024D-01 2.370312500000D+02-3.238782131133D-01-8.123195506556D-09
   -2.232235838726D-10 1.000000000000D+00 1.540000000000D+03 0.000000000000D+00
    2.000000000000D+00 0.000000000000D+00-1.443549990654D-08 5.300000000000D+01
    4.248180000000D+05 4.000000000000D+00
 6 09  7 17  0  0  0.0 1.943400129676D-04 1.080024958355D-11 0.000000000000D+00
    1.130000000000D+02-8.843750000000D+00 5.568446233851D-09-2.164753054128D+00
   -3.222376108170D-07 5.972478073090D-03 6.729736924171D-06 5.153692495346D+03
    4.320000000000D+05 1.862645149231D-09-2.368987473266D+00 9.872019290924D-08
    9.338500620320D-01 2.340937500000D+02-1.312264358724D+00-8.312846263414D-09
   -8.678932940965D-11 1.000000000000D+00 1.540000000000D+03 0.000000000000D+00
    2.000000000000D+00 0.000000000000D+00-4.656612873077D-09 1.130000000000D+02
    4.248180000000D+05 4.000000000000D+00
 7 09  7 17  0  0  0.0 1.511210575700D-05-6.821210263297D-13 0.000000000000D+00
    8.700000000000D+01-7.828125000000D+01 4.159101814713D-09 3.516916227163D-01
   -4.012137651443D-06 2.845886745490D-03 7.674098014832D-06 5.153666723251D+03
    4.320000000000D+05 5.401670932770D-08 1.867373154559D+00-1.676380634308D-08
    9.678730029727D-01 2.359687500000D+02 2.880883917544D+00-7.946759585863D-09
    2.257236880119D-10 1.000000000000D+00 1.540000000000D+03 0.000000000000D+00
    2.000000000000D+00 0.000000000000D+00-1.071020960808D-08 8.700000000000D+01
    4.248180000000D+05 4.000000000000D+00
25 09  7 17  0  0  0.0 5.115428939462D-04 1.728039933369D-11 0.000000000000D+00
    2.900000000000D+01-7.493750000000D+01 4.113028467002D-09-1.475404064593D+00
   -3.704801201820D-06 1.127903524321D-02 7.659196853638D-06 5.153653118134D+03
    4.320000000000D+05-2.160668373108D-07 1.772935304500D+00 1.639127731323D-07
    9.700550857280D-01 2.409687500000D+02-1.209222916280D+00-7.986046936624D-09
    2.078658013021D-10 1.000000000000D+00 1.540000000000D+03 0.000000000000D+00
    2.800000000000D+00 0.000000000000D+00-7.450580596924D-09 2.900000000000D+01
    4.248180000000D+05 4.000000000000D+00
21 09  7 17  0  0  0.0 2.345535904169D-06-2.160049916711D-12 0.000000000000D+00
    5.900000000000D+01 5.903125000000D+01 5.112355807283D-09-6.119042700747D-01
    2.929940819740D-06 1.549647131469D-02 9.747222065926D-06 5.153601383209D+03
    4.320000000000D+05 1.899898052216D-07-1.257263716732D+00 2.123415470123D-07
    9.334687334167D-01 1.766875000000D+02-2.579475194250D+00-8.381777706114D-09
   -4.993065124061D-10 1.000000000000D+00 1.540000000000D+03 0.000000000000D+00
    2.000000000000D+00 0.000000000000D+00-1.210719347000D-08 5.900000000000D+01
    4.248180000000D+05 4.000000000000D+00
15 09  7 17  0  0  0.0-3.088065423071D-04-2.501110429876D-12 0.000000000000D+00
    3.900000000000D+01-3.650000000000D+01 4.603763193788D-09 2.736099614514D+00
   -1.914799213409D-06 1.488116919063D-03 2.825632691383D-06 5.153638658524D+03
    4.320000000000D+05-1.490116119385D-08 8.045121667953D-01 1.676380634308D-08
    9.562177210491D-01 3.209062500000D+02-4.868858920889D-01-8.375706024632D-09
   -8.393206753608D-11 1.000000000000D+00 1.540000000000D+03 0.000000000000D+00
    2.000000000000D+00 0.000000000000D+00-9.778887033463D-09 3.900000000000D+01
    4.248180000000D+05 4.000000000000D+00
18 09  7 17  0  0  0.0-3.942381590605D-05 3.183231456205D-12 0.000000000000D+00
    3.800000000000D+01 1.033750000000D+02 4.772341644328D-09-1.893519890852D+00
    5.302950739861D-06 1.070003467612D-02 4.678964614868D-06 5.153611869812D+03
    4.320000000000D+05 5.960464477539D-08-1.990972652688D-01-2.421438694000D-07
    9.418975817007D-01 2.821875000000D+02-2.406256478744D+00-8.182126532698D-09
    8.036049019412D-11 1.000000000000D+00 1.540000000000D+03 0.000000000000D+00
    2.000000000000D+00 0.000000000000D+00-1.071020960808D-08 3.800000000000D+01
    4.248180000000D+05 4.000000000000D+00
22 09  7 17  0  0  0.0 1.953118480742D-04-9.094947017729D-13 0.000000000000D+00
    7.000000000000D+01 1.033437500000D+02 4.778413325809D-09-2.917630096582D+00
    5.343928933144D-06 5.182611057535D-03 5.254521965981D-06 5.153662630081D+03
    4.320000000000D+05-3.166496753693D-08-1.935181609225D-01-4.097819328308D-08
    9.395647788844D-01 2.670312500000D+02-1.898683887805D+00-8.236057350562D-09
    3.357282701443D-11 1.000000000000D+00 1.540000000000D+03 0.000000000000D+00
    2.000000000000D+00 0.000000000000D+00-1.769512891769D-08 7.000000000000D+01
    4.256520000000D+05 4.000000000000D+00
28 09  7 17  0  0  0.0-2.595735713840D-05-1.136868377216D-13 0.000000000000D+00
    2.900000000000D+01-1.593750000000D+01 4.552332480063D-09-2.679472876172D+00
   -9.872019290924D-07 1.494113565423D-02 7.864087820053D-06 5.153646833420D+03
    4.320000000000D+05 2.831220626831D-07 2.944896633760D+00-7.450580596924D-08
    9.674186879115D-01 2.280625000000D+02-2.021410127708D+00-7.756394513536D-09
    5.243075537999D-10 1.000000000000D+00 1.540000000000D+03 0.000000000000D+00
    2.000000000000D+00 0.000000000000D+00-1.071020960808D-08 2.900000000000D+01
    4.256580000000D+05 4.000000000000D+00
11 09  7 17  0  0  0.0-1.090811565518D-05-1.591615728103D-12 0.000000000000D+00
    4.600000000000D+01 1.590625000000D+01 6.370979662590D-09 1.675951062660D-01
    1.000240445137D-06 9.505346068181D-03 8.605420589447D-06 5.153689012527D+03
    4.320000000000D+05-5.587935447693D-09-1.491126800056D+00 1.527369022369D-07
    8.888894809462D-01 1.704375000000D+02 7.059843547393D-01-8.957873131372D-09
   -5.028780897481D-10 1.000000000000D+00 1.540000000000D+03 0.000000000000D+00
    2.000000000000D+00 0.000000000000D+00-1.164153218269D-08 4.600000000000D+01
    4.271820000000D+05 4.000000000000D+00
26 09  7 17  0  0  0.0 6.471294909716D-05 1.136868377216D-13 0.000000000000D+00
    2.800000000000D+01-4.012500000000D+01 3.777300196858D-09 1.526805613582D-01
   -1.968815922737D-06 2.029087219853D-02 3.911554813385D-06 5.154906768799D+03
    4.320000000000D+05-2.384185791016D-07 8.759101338129D-01 3.688037395477D-07
    9.925674331948D-01 3.233750000000D+02 1.024938315378D+00-8.227485564941D-09
   -8.321775206769D-11 1.000000000000D+00 1.540000000000D+03 0.000000000000D+00
    2.000000000000D+00 0.000000000000D+00-6.519258022308D-09 2.800000000000D+01
    4.305720000000D+05 4.000000000000D+00
27 09  7 17  0  0  0.0 6.619608029723D-05 3.069544618484D-12 0.000000000000D+00
    3.700000000000D+01-9.371875000000D+01 3.903734034763D-09 2.726168726796D+00
   -4.965811967850D-06 2.128798735794D-02 8.555129170418D-06 5.153773246765D+03
    4.320000000000D+05 2.626329660416D-07 1.809501161329D+00-1.210719347000D-07
    9.748035188565D-01 2.198437500000D+02-1.571933842154D+00-7.455310543609D-09
    1.153619481453D-10 1.000000000000D+00 1.540000000000D+03 0.000000000000D+00
    2.000000000000D+00 0.000000000000D+00-4.190951585770D-09 3.700000000000D+01
    4.312320000000D+05 4.000000000000D+00
